NORAD_CAT_ID,OBJECT_NAME,OBJECT_TYPE,EPOCH,MEAN_MOTION,ECCENTRICITY,INCLINATION,RA_OF_ASC_NODE,ARG_OF_PERICENTER,MEAN_ANOMALY,BSTAR,MEAN_MOTION_DOT,MEAN_MOTION_DDOT,TLE_LINE0,TLE_LINE1,TLE_LINE2,SEMIMAJOR_AXIS,PERIOD,APOGEE,PERIGEE,DECAYED
55923.0,STARLINK-5854,PAYLOAD,2023-11-15 14:50:29,14.98330069,0.0002757,70.001,275.1789,271.8231,88.2613,-3.2124e-05,-4.76e-06,0.0,0 STARLINK-5854,1 55923U 23037K   23319.61839288 -.00000476  00000-0 -32124-4 0  9997,2 55923  70.0010 275.1789 0002757 271.8231  88.2613 14.98330069 36907,6950.193,96.107,573.974,570.142,0.0
55923.0,STARLINK-5854,PAYLOAD,2023-11-16 06:51:50,14.98318426,0.0002057,70.0014,273.496,278.2368,81.8558,0.00016469,1.872e-05,0.0,0 STARLINK-5854,1 55923U 23037K   23320.28599750  .00001872  00000-0  16469-3 0  9991,2 55923  70.0014 273.4960 0002057 278.2368  81.8558 14.98318426 37347,6950.229,96.108,573.523,570.664,0.0
55923.0,STARLINK-5854,PAYLOAD,2023-11-17 00:29:18,14.98332897,0.0001842,70.003,271.6449,296.1193,63.9776,1.4576e-06,-7.5e-07,0.0,0 STARLINK-5854,1 55923U 23037K   23321.02035478 -.00000075  00000-0  14576-5 0  9990,2 55923  70.0030 271.6449 0001842 296.1193  63.9776 14.98332897 37456,6950.184,96.107,573.329,570.769,0.0
55923.0,STARLINK-5854,PAYLOAD,2023-11-17 06:53:51,14.98327545,0.0002249,70.0025,270.9713,319.5418,40.5573,-2.8518e-05,-4.33e-06,0.0,0 STARLINK-5854,1 55923U 23037K   23321.28739961 -.00000433  00000-0 -28518-4 0  9995,2 55923  70.0025 270.9713 0002249 319.5418  40.5573 14.98327545 37155,6950.2,96.107,573.629,570.502,0.0
55923.0,STARLINK-5854,PAYLOAD,2023-11-17 22:55:11,14.98332771,0.0002532,69.9999,269.2874,276.3883,83.6987,-3.6631e-05,-5.3e-06,0.0,0 STARLINK-5854,1 55923U 23037K   23321.95499158 -.00000530  00000-0 -36631-4 0  9993,2 55923  69.9999 269.2874 0002532 276.3883  83.6987 14.98332771 37257,6950.184,96.107,573.809,570.29,0.0
55923.0,STARLINK-5854,PAYLOAD,2023-11-18 03:43:35,14.98325256,0.0002218,70.0006,268.785,257.0768,103.0143,-5.927e-05,-8e-06,0.0,0 STARLINK-5854,1 55923U 23037K   23322.15527581 -.00000800  00000-0 -59270-4 0  9992,2 55923  70.0006 268.7850 0002218 257.0768 103.0143 14.98325256 37628,6950.208,96.107,573.614,570.531,0.0
55923.0,STARLINK-5854,PAYLOAD,2023-11-18 13:20:23,14.98334286,0.000271,69.9994,267.7723,274.3448,85.7402,-3.1703e-05,-4.71e-06,0.0,0 STARLINK-5854,1 55923U 23037K   23322.55582919 -.00000471  00000-0 -31703-4 0  9997,2 55923  69.9994 267.7723 0002710 274.3448  85.7402 14.98334286 37349,6950.18,96.107,573.928,570.161,0.0
55923.0,STARLINK-5854,PAYLOAD,2023-11-19 13:22:24,14.98329326,0.0002152,70.0015,265.246,284.6994,75.3927,-1.7484e-05,-3.01e-06,0.0,0 STARLINK-5854,1 55923U 23037K   23323.55723237 -.00000301  00000-0 -17484-4 0  9990,2 55923  70.0015 265.2460 0002152 284.6994  75.3927 14.98329326 37499,6950.195,96.107,573.556,570.564,0.0
55923.0,STARLINK-5854,PAYLOAD,2023-11-19 19:46:56,14.98328987,0.0002443,70.0006,264.5736,270.3352,89.7527,4.288e-05,4.19e-06,0.0,0 STARLINK-5854,1 55923U 23037K   23323.82426792  .00000419  00000-0  42880-4 0  9992,2 55923  70.0006 264.5736 0002443 270.3352  89.7527 14.98328987 37879,6950.196,96.107,573.759,570.363,0.0
55923.0,STARLINK-5854,PAYLOAD,2023-11-19 21:23:04,14.98329642,0.0002548,69.9993,264.406,267.4478,92.6389,3.6668e-05,3.45e-06,0.0,0 STARLINK-5854,1 55923U 23037K   23323.89102729  .00000345  00000-0  36668-4 0  9995,2 55923  69.9993 264.4060 0002548 267.4478  92.6389 14.98329642 37544,6950.194,96.107,573.83,570.288,0.0
55923.0,STARLINK-5854,PAYLOAD,2023-11-20 13:24:25,14.98331274,0.0002403,70.0003,262.7213,278.8994,81.1893,-9.0016e-06,-2e-06,0.0,0 STARLINK-5854,1 55923U 23037K   23324.55862816 -.00000200  00000-0 -90016-5 0  9999,2 55923  70.0003 262.7213 0002403 278.8994  81.1893 14.98331274 37647,6950.189,96.107,573.724,570.384,0.0
55923.0,STARLINK-5854,PAYLOAD,2023-11-20 21:25:05,14.98332217,0.0002634,70.0,261.88,276.6074,83.4785,-2.207e-05,-3.56e-06,0.0,0 STARLINK-5854,1 55923U 23037K   23324.89242634 -.00000356  00000-0 -22070-4 0  9992,2 55923  70.0000 261.8800 0002634 276.6074  83.4785 14.98332217 37695,6950.186,96.107,573.882,570.22,0.0
55923.0,STARLINK-5854,PAYLOAD,2023-11-21 03:49:38,14.98329033,0.0002481,70.0002,261.2075,271.0433,89.0442,-7.7182e-05,-1.014e-05,0.0,0 STARLINK-5854,1 55923U 23037K   23325.15946874 -.00001014  00000-0 -77182-4 0  9995,2 55923  70.0002 261.2075 0002481 271.0433  89.0442 14.98329033 38070,6950.196,96.107,573.785,570.337,0.0
55923.0,STARLINK-5854,PAYLOAD,2023-11-21 05:25:45,14.9833663,0.0002729,69.9997,261.039,270.9931,89.0916,-3.9152e-06,-1.4e-06,0.0,0 STARLINK-5854,1 55923U 23037K   23325.22622163 -.00000140  00000-0 -39152-5 0  9990,2 55923  69.9997 261.0390 0002729 270.9931  89.0916 14.98336630 38082,6950.172,96.107,573.934,570.141,0.0
55923.0,STARLINK-5854,PAYLOAD,2023-11-21 21:27:06,14.98326649,0.0002799,70.0001,259.3566,268.3323,91.7515,-3.1375e-05,-4.67e-06,0.0,0 STARLINK-5854,1 55923U 23037K   23325.89382804 -.00000467  00000-0 -31375-4 0  9998,2 55923  70.0001 259.3566 0002799 268.3323  91.7515 14.98326649 37846,6950.203,96.107,574.014,570.123,0.0
55923.0,STARLINK-5854,PAYLOAD,2023-11-22 05:27:46,14.98334102,0.0002748,69.9994,258.5155,262.8231,97.2616,4.5273e-05,4.47e-06,0.0,0 STARLINK-5854,1 55923U 23037K   23326.22762072  .00000447  00000-0  45273-4 0  9993,2 55923  69.9994 258.5155 0002748 262.8231  97.2616 14.98334102 38230,6950.18,96.107,573.955,570.135,0.0
55923.0,STARLINK-5854,PAYLOAD,2023-11-22 21:29:07,14.98332386,0.0002661,69.9998,256.8327,259.717,100.369,3.8203e-05,3.63e-06,0.0,0 STARLINK-5854,1 55923U 23037K   23326.89522046  .00000363  00000-0  38203-4 0  9993,2 55923  69.9998 256.8327 0002661 259.7170 100.3690 14.98332386 37999,6950.186,96.107,573.9,570.201,0.0
55923.0,STARLINK-5854,PAYLOAD,2023-11-23 05:29:46,14.98341155,0.0002827,69.9994,255.9898,271.3972,88.6863,9.0395e-05,9.86e-06,0.0,0 STARLINK-5854,1 55923U 23037K   23327.22901287  .00000986  00000-0  90395-4 0  9990,2 55923  69.9994 255.9898 0002827 271.3972  88.6863 14.98341155 38380,6950.158,96.106,573.988,570.059,0.0
55923.0,STARLINK-5854,PAYLOAD,2023-11-23 19:55:00,14.98336231,0.0001625,70.0023,254.4799,270.026,90.0713,-0.0001928,-2.393e-05,0.0,0 STARLINK-5854,1 55923U 23037K   23327.82986805 -.00002393  00000-0 -19280-3 0  9994,2 55923  70.0023 254.4799 0001625 270.0260  90.0713 14.98336231 38471,6950.174,96.107,573.168,570.909,0.0
55923.0,STARLINK-5854,PAYLOAD,2023-11-23 21:31:08,14.98321916,0.0002728,70.0002,254.3098,263.6764,96.4084,-9.1212e-05,-1.181e-05,0.0,0 STARLINK-5854,1 55923U 23037K   23327.89663112 -.00001181  00000-0 -91212-4 0  9994,2 55923  70.0002 254.3098 0002728 263.6764  96.4084 14.98321916 38140,6950.218,96.108,573.979,570.187,0.0
55923.0,STARLINK-5854,PAYLOAD,2023-11-24 03:55:41,14.9831799,0.0002515,70.0003,253.6368,245.7954,114.2942,-0.00013079,-1.653e-05,0.0,0 STARLINK-5854,1 55923U 23037K   23328.16367539 -.00001653  00000-0 -13079-3 0  9997,2 55923  70.0003 253.6368 0002515 245.7954 114.2942 14.98317990 38520,6950.23,96.108,573.843,570.347,0.0
55923.0,STARLINK-5854,PAYLOAD,2023-11-24 05:31:49,14.9831805,0.0002517,70.0,253.4677,251.6875,108.4011,-0.00012918,-1.633e-05,0.0,0 STARLINK-5854,1 55923U 23037K   23328.23043598 -.00001633  00000-0 -12918-3 0  9990,2 55923  70.0000 253.4677 0002517 251.6875 108.4011 14.98318050 38191,6950.23,96.108,573.844,570.345,0.0
55923.0,STARLINK-5854,PAYLOAD,2023-11-24 19:57:01,14.98329748,0.0002889,69.9987,251.9516,271.4311,88.6517,-6.2257e-05,-8.36e-06,0.0,0 STARLINK-5854,1 55923U 23037K   23328.83126923 -.00000836  00000-0 -62257-4 0  9996,2 55923  69.9987 251.9516 0002889 271.4311  88.6517 14.98329748 38628,6950.194,96.107,574.067,570.051,0.0
55923.0,STARLINK-5854,PAYLOAD,2023-11-24 21:33:09,14.98329019,0.0002759,69.9991,251.7826,263.1137,96.9708,-3.0688e-05,-4.59e-06,0.0,0 STARLINK-5854,1 55923U 23037K   23328.89802815 -.00000459  00000-0 -30688-4 0  9997,2 55923  69.9991 251.7826 0002759 263.1137  96.9708 14.98329019 38293,6950.196,96.107,573.978,570.143,0.0
55923.0,STARLINK-5854,PAYLOAD,2023-11-25 03:57:41,14.98332566,0.0002113,70.0012,251.1106,245.838,114.2558,4.0596e-05,3.92e-06,0.0,0 STARLINK-5854,1 55923U 23037K   23329.16506406  .00000392  00000-0  40596-4 0  9998,2 55923  70.0012 251.1106 0002113 245.8380 114.2558 14.98332566 38676,6950.185,96.107,573.519,570.581,0.0
55923.0,STARLINK-5854,PAYLOAD,2023-11-25 05:33:49,14.98332768,0.0002103,70.0011,250.942,243.5273,116.567,6.9439e-05,7.36e-06,0.0,0 STARLINK-5854,1 55923U 23037K   23329.23182298  .00000736  00000-0  69439-4 0  9994,2 55923  70.0011 250.9420 0002103 243.5273 116.5670 14.98332768 38344,6950.184,96.107,573.511,570.588,0.0
55923.0,STARLINK-5854,PAYLOAD,2023-11-25 21:35:09,14.98330233,0.0002345,70.0003,249.2597,231.0692,129.0259,0.0002008,2.304e-05,0.0,0 STARLINK-5854,1 55923U 23037K   23329.89941795  .00002304  00000-0  20080-3 0  9992,2 55923  70.0003 249.2597 0002345 231.0692 129.0259 14.98330233 38444,6950.192,96.107,573.687,570.427,0.0
55923.0,STARLINK-5854,PAYLOAD,2023-11-26 03:59:41,14.98337109,0.0002275,70.0008,248.5874,243.1945,116.8981,0.00024852,2.874e-05,0.0,0 STARLINK-5854,1 55923U 23037K   23330.16645176  .00002874  00000-0  24852-3 0  9991,2 55923  70.0008 248.5874 0002275 243.1945 116.8981 14.98337109 38823,6950.171,96.107,573.617,570.455,0.0
55923.0,STARLINK-5854,PAYLOAD,2023-11-26 20:01:04,14.98319538,0.0002532,70.0012,246.9025,247.0188,113.0704,-0.00016046,-2.006e-05,0.0,0 STARLINK-5854,1 55923U 23037K   23330.83407515 -.00002006  00000-0 -16046-3 0  9993,2 55923  70.0012 246.9025 0002532 247.0188 113.0704 14.98319538 38925,6950.225,96.108,573.85,570.33,0.0
55923.0,STARLINK-5854,PAYLOAD,2023-11-26 21:37:13,14.98305636,0.0002579,70.0003,246.7334,251.6661,108.4217,-0.00032742,-3.995e-05,0.0,0 STARLINK-5854,1 55923U 23037K   23330.90084773 -.00003995  00000-0 -32742-3 0  9997,2 55923  70.0003 246.7334 0002579 251.6661 108.4217 14.98305636 38598,6950.268,96.109,573.926,570.341,0.0
